start=new Date('2023-05-06T00:00:00.000Z').valueOf();
sats=[{"TIME_SYSTEM":"UTC","ARG_OF_PERICENTER":"98.6135","REV_AT_EPOCH":"14286","MEAN_ELEMENT_THEORY":"SGP4","OBJECT_TYPE":"PAYLOAD","INCLINATION":"53.0511","FILE":"3901419","SEMIMAJOR_AXIS":"6925.343","RCS_SIZE":"LARGE","SITE":"AFETR","MEAN_MOTION_DOT":"0.00012860","BSTAR":"0.00088063000000","MEAN_MOTION_DDOT":"0.0000000000000","EPOCH":"2023-05-05T07:32:33.661536","ECCENTRICITY":"0.00012550","TLE_LINE1":"1 46572U 20070AS  23125.31427849  .00012860  00000-0  88063-3 0  9999","TLE_LINE2":"2 46572  53.0511 162.5445 0001255  98.6135 261.4996 15.06401684142866","MEAN_MOTION":"15.06401684","GP_ID":"231281916","PERIOD":"95.592","PERIAPSIS":"546.339","COUNTRY_CODE":"US","OBJECT_NAME":"STARLINK-1531","DECAY_DATE":null,"LAUNCH_DATE":"2020-10-06","REF_FRAME":"TEME","RA_OF_ASC_NODE":"162.5445","ELEMENT_SET_NO":"999","EPHEMERIS_TYPE":"0","CENTER_NAME":"EARTH","APOAPSIS":"548.078","OBJECT_ID":"2020-070AS","NORAD_CAT_ID":"46572","CLASSIFICATION_TYPE":"U","MEAN_ANOMALY":"261.4996"},{"RA_OF_ASC_NODE":"91.0902","ELEMENT_SET_NO":"999","CENTER_NAME":"EARTH","EPHEMERIS_TYPE":"0","NORAD_CAT_ID":"46573","OBJECT_ID":"2020-070AT","CLASSIFICATION_TYPE":"U","MEAN_ANOMALY":"146.5257","APOAPSIS":"329.917","PERIAPSIS":"320.981","OBJECT_NAME":"STARLINK-1650","COUNTRY_CODE":"US","LAUNCH_DATE":"2020-10-06","REF_FRAME":"TEME","DECAY_DATE":null,"BSTAR":"0.00130930000000","SITE":"AFETR","MEAN_MOTION_DOT":"0.00277746","MEAN_MOTION_DDOT":"0.0000000000000","EPOCH":"2023-05-05T10:00:00.999936","FILE":"3901419","SEMIMAJOR_AXIS":"6703.584","RCS_SIZE":"LARGE","TLE_LINE1":"1 46573U 20070AT  23125.41667824  .00277746  00000-0  13093-2 0  9996","TLE_LINE2":"2 46573  53.0413  91.0902 0006665  64.6453 146.5257 15.81765842143864","MEAN_MOTION":"15.81765842","ECCENTRICITY":"0.00066650","PERIOD":"91.037","GP_ID":"231281977","TIME_SYSTEM":"UTC","ARG_OF_PERICENTER":"64.6453","MEAN_ELEMENT_THEORY":"SGP4","REV_AT_EPOCH":"14386","INCLINATION":"53.0413","OBJECT_TYPE":"PAYLOAD"},{"RA_OF_ASC_NODE":"145.6323","ELEMENT_SET_NO":"999","CLASSIFICATION_TYPE":"U","MEAN_ANOMALY":"262.9740","OBJECT_ID":"2020-070AU","NORAD_CAT_ID":"46574","APOAPSIS":"548.223","CENTER_NAME":"EARTH","EPHEMERIS_TYPE":"0","PERIAPSIS":"546.221","REF_FRAME":"TEME","LAUNCH_DATE":"2020-10-06","DECAY_DATE":null,"OBJECT_NAME":"STARLINK-1660","COUNTRY_CODE":"US","TLE_LINE2":"2 46574  53.0525 145.6323 0001445  97.1414 262.9740 15.06397302143129","TLE_LINE1":"1 46574U 20070AU  23125.74233246  .00002294  00000-0  17284-3 0  9991","MEAN_MOTION":"15.06397302","ECCENTRICITY":"0.00014450","EPOCH":"2023-05-05T17:48:57.524544","MEAN_MOTION_DDOT":"0.0000000000000","MEAN_MOTION_DOT":"0.00002294","SITE":"AFETR","BSTAR":"0.00017284000000","FILE":"3901928","SEMIMAJOR_AXIS":"6925.357","RCS_SIZE":"LARGE","PERIOD":"95.592","GP_ID":"231294014","ARG_OF_PERICENTER":"97.1414","TIME_SYSTEM":"UTC","INCLINATION":"53.0525","OBJECT_TYPE":"PAYLOAD","MEAN_ELEMENT_THEORY":"SGP4","REV_AT_EPOCH":"14312"},{"TIME_SYSTEM":"UTC","ARG_OF_PERICENTER":"91.3509","MEAN_ELEMENT_THEORY":"SGP4","REV_AT_EPOCH":"14351","OBJECT_TYPE":"PAYLOAD","INCLINATION":"53.0531","FILE":"3901931","RCS_SIZE":"LARGE","SEMIMAJOR_AXIS":"6925.377","MEAN_MOTION_DOT":"0.00000439","SITE":"AFETR","BSTAR":"0.00004835300000","EPOCH":"2023-05-05T23:55:51.763296","MEAN_MOTION_DDOT":"0.0000000000000","ECCENTRICITY":"0.00014020","TLE_LINE1":"1 46575U 20070AV  23125.99712689  .00000439  00000-0  48353-4 0  9993","TLE_LINE2":"2 46575  53.0531 119.4858 0001402  91.3509 268.7640 15.06390785143517","MEAN_MOTION":"15.06390785","GP_ID":"231294052","PERIOD":"95.593","PERIAPSIS":"546.271","COUNTRY_CODE":"US","OBJECT_NAME":"STARLINK-1675","DECAY_DATE":null,"LAUNCH_DATE":"2020-10-06","REF_FRAME":"TEME","RA_OF_ASC_NODE":"119.4858","ELEMENT_SET_NO":"999","EPHEMERIS_TYPE":"0","CENTER_NAME":"EARTH","APOAPSIS":"548.213","OBJECT_ID":"2020-070AV","NORAD_CAT_ID":"46575","CLASSIFICATION_TYPE":"U","MEAN_ANOMALY":"268.7640"},{"TIME_SYSTEM":"UTC","ARG_OF_PERICENTER":"87.0043","MEAN_ELEMENT_THEORY":"SGP4","REV_AT_EPOCH":"14315","INCLINATION":"53.0523","OBJECT_TYPE":"PAYLOAD","MEAN_MOTION_DOT":"0.00002869","SITE":"AFETR","BSTAR":"0.00021143000000","MEAN_MOTION_DDOT":"0.0000000000000","EPOCH":"2023-05-05T22:24:57.828960","FILE":"3901932","SEMIMAJOR_AXIS":"6925.356","RCS_SIZE":"LARGE","TLE_LINE2":"2 46576  53.0523 144.7732 0001238  87.0043 273.1088 15.06397553143159","MEAN_MOTION":"15.06397553","TLE_LINE1":"1 46576U 20070AW  23125.93400265  .00002869  00000-0  21143-3 0  9998","ECCENTRICITY":"0.00012380","PERIOD":"95.592","GP_ID":"231293973","PERIAPSIS":"546.364","OBJECT_NAME":"STARLINK-1677","COUNTRY_CODE":"US","LAUNCH_DATE":"2020-10-06","REF_FRAME":"TEME","DECAY_DATE":null,"ELEMENT_SET_NO":"999","RA_OF_ASC_NODE":"144.7732","CENTER_NAME":"EARTH","EPHEMERIS_TYPE":"0","OBJECT_ID":"2020-070AW","NORAD_CAT_ID":"46576","MEAN_ANOMALY":"273.1088","CLASSIFICATION_TYPE":"U","APOAPSIS":"548.078"},{"SITE":"AFETR","BSTAR":"0.00023678000000","MEAN_MOTION_DOT":"0.00003247","MEAN_MOTION_DDOT":"0.0000000000000","EPOCH":"2023-05-05T08:47:33.705312","FILE":"3901426","RCS_SIZE":"LARGE","SEMIMAJOR_AXIS":"6925.352","MEAN_MOTION":"15.06398762","TLE_LINE2":"2 46577  53.0528 147.3234 0001221  92.7712 267.3417 15.06398762143063","TLE_LINE1":"1 46577U 20070AX  23125.36636233  .00003247  00000-0  23678-3 0  9998","ECCENTRICITY":"0.00012210","PERIOD":"95.592","GP_ID":"231282148","TIME_SYSTEM":"UTC","ARG_OF_PERICENTER":"92.7712","REV_AT_EPOCH":"14306","MEAN_ELEMENT_THEORY":"SGP4","INCLINATION":"53.0528","OBJECT_TYPE":"PAYLOAD","RA_OF_ASC_NODE":"147.3234","ELEMENT_SET_NO":"999","CENTER_NAME":"EARTH","EPHEMERIS_TYPE":"0","NORAD_CAT_ID":"46577","OBJECT_ID":"2020-070AX","MEAN_ANOMALY":"267.3417","CLASSIFICATION_TYPE":"U","APOAPSIS":"548.063","PERIAPSIS":"546.372","OBJECT_NAME":"STARLINK-1682","COUNTRY_CODE":"US","LAUNCH_DATE":"2020-10-06","REF_FRAME":"TEME","DECAY_DATE":null},{"ARG_OF_PERICENTER":"97.6209","TIME_SYSTEM":"UTC","MEAN_ELEMENT_THEORY":"SGP4","REV_AT_EPOCH":"14307","OBJECT_TYPE":"PAYLOAD","INCLINATION":"53.0531","FILE":"3901936","SEMIMAJOR_AXIS":"6925.372","RCS_SIZE":"LARGE","MEAN_MOTION_DDOT":"0.0000000000000","EPOCH":"2023-05-06T00:15:46.651968","SITE":"AFETR","MEAN_MOTION_DOT":"0.00001071","BSTAR":"0.00009079800000","ECCENTRICITY":"0.00011140","TLE_LINE1":"1 46578U 20070AY  23126.01095662  .00001071  00000-0  90798-4 0  9998","TLE_LINE2":"2 46578  53.0531 129.4752 0001114  97.6209 262.4907 15.06392309143072","MEAN_MOTION":"15.06392309","GP_ID":"231294238","PERIOD":"95.593","PERIAPSIS":"546.466","COUNTRY_CODE":"US","OBJECT_NAME":"STARLINK-1683","DECAY_DATE":null,"REF_FRAME":"TEME","LAUNCH_DATE":"2020-10-06","ELEMENT_SET_NO":"999","RA_OF_ASC_NODE":"129.4752","EPHEMERIS_TYPE":"0","CENTER_NAME":"EARTH","APOAPSIS":"548.009","CLASSIFICATION_TYPE":"U","MEAN_ANOMALY":"262.4907","OBJECT_ID":"2020-070AY","NORAD_CAT_ID":"46578"},{"COUNTRY_CODE":"US","OBJECT_NAME":"STARLINK-1705","DECAY_DATE":null,"REF_FRAME":"TEME","LAUNCH_DATE":"2020-10-06","PERIAPSIS":"546.217","EPHEMERIS_TYPE":"0","CENTER_NAME":"EARTH","APOAPSIS":"548.258","CLASSIFICATION_TYPE":"U","MEAN_ANOMALY":"271.0847","NORAD_CAT_ID":"46579","OBJECT_ID":"2020-070AZ","RA_OF_ASC_NODE":"144.7020","ELEMENT_SET_NO":"999","MEAN_ELEMENT_THEORY":"SGP4","REV_AT_EPOCH":"14313","OBJECT_TYPE":"PAYLOAD","INCLINATION":"53.0519","ARG_OF_PERICENTER":"89.0311","TIME_SYSTEM":"UTC","GP_ID":"231294130","PERIOD":"95.593","FILE":"3901938","RCS_SIZE":"LARGE","SEMIMAJOR_AXIS":"6925.373","MEAN_MOTION_DDOT":"0.0000000000000","EPOCH":"2023-05-05T22:46:12.180576","SITE":"AFETR","BSTAR":"0.00017372000000","MEAN_MOTION_DOT":"0.00002306","ECCENTRICITY":"0.00014730","TLE_LINE2":"2 46579  53.0519 144.7020 0001473  89.0311 271.0847 15.06392160143135","MEAN_MOTION":"15.06392160","TLE_LINE1":"1 46579U 20070AZ  23125.94875209  .00002306  00000-0  17372-3 0  9991"},{"TLE_LINE1":"1 46580U 20070BA  23125.79392325  .00000448  00000-0  48984-4 0  9998","TLE_LINE2":"2 46580  53.0525 145.3964 0001288  79.2618 280.8516 15.06404210143145","MEAN_MOTION":"15.06404210","ECCENTRICITY":"0.00012880","EPOCH":"2023-05-05T19:03:14.968800","MEAN_MOTION_DDOT":"0.0000000000000","MEAN_MOTION_DOT":"0.00000448","SITE":"AFETR","BSTAR":"0.00004898400000","RCS_SIZE":"LARGE","FILE":"3901940","SEMIMAJOR_AXIS":"6925.336","PERIOD":"95.592","GP_ID":"231294150","ARG_OF_PERICENTER":"79.2618","TIME_SYSTEM":"UTC","INCLINATION":"53.0525","OBJECT_TYPE":"PAYLOAD","MEAN_ELEMENT_THEORY":"SGP4","REV_AT_EPOCH":"14314","RA_OF_ASC_NODE":"145.3964","ELEMENT_SET_NO":"999","CLASSIFICATION_TYPE":"U","MEAN_ANOMALY":"280.8516","NORAD_CAT_ID":"46580","OBJECT_ID":"2020-070BA","APOAPSIS":"548.093","CENTER_NAME":"EARTH","EPHEMERIS_TYPE":"0","PERIAPSIS":"546.309","REF_FRAME":"TEME","LAUNCH_DATE":"2020-10-06","DECAY_DATE":null,"OBJECT_NAME":"STARLINK-1708","COUNTRY_CODE":"US"},{"CENTER_NAME":"EARTH","EPHEMERIS_TYPE":"0","MEAN_ANOMALY":"276.1433","CLASSIFICATION_TYPE":"U","OBJECT_ID":"2020-070BB","NORAD_CAT_ID":"46581","APOAPSIS":"548.302","ELEMENT_SET_NO":"999","RA_OF_ASC_NODE":"139.3661","OBJECT_NAME":"STARLINK-1712","COUNTRY_CODE":"US","REF_FRAME":"TEME","LAUNCH_DATE":"2020-10-06","DECAY_DATE":null,"PERIAPSIS":"546.190","PERIOD":"95.593","GP_ID":"231294277","MEAN_MOTION_DDOT":"0.0000000000000","EPOCH":"2023-05-06T00:35:40.629120","SITE":"AFETR","MEAN_MOTION_DOT":"0.00001135","BSTAR":"0.00009509600000","SEMIMAJOR_AXIS":"6925.381","FILE":"3901940","RCS_SIZE":"LARGE","TLE_LINE1":"1 46581U 20070BB  23126.02477580  .00001135  00000-0  95096-4 0  9993","TLE_LINE2":"2 46581  53.0522 139.3661 0001525  83.9730 276.1433 15.06389382143239","MEAN_MOTION":"15.06389382","ECCENTRICITY":"0.00015250","MEAN_ELEMENT_THEORY":"SGP4","REV_AT_EPOCH":"14323","INCLINATION":"53.0522","OBJECT_TYPE":"PAYLOAD","ARG_OF_PERICENTER":"83.9730","TIME_SYSTEM":"UTC"}];
